IRIDIUM 36 [-]          
1 24967U 97056C   24100.94209073  .00000519  00000+0  16969-3 0  9994
2 24967  86.4015 354.9433 0002125  81.7361 278.4077 14.36715854389998
IRIDIUM 39 [-]          
1 25042U 97069D   24100.52203995  .00000892  00000+0  23552-3 0  9994
2 25042  86.3953  36.9208 0016840 319.6707  40.3246 14.47818423386186
IRIDIUM 38 [-]          
1 25043U 97069E   24100.62291016  .00000643  00000+0  20992-3 0  9996
2 25043  86.3961  55.4578 0004120  84.1141 276.0526 14.37155865383668
IRIDIUM 42 [-]          
1 25077U 97077A   24100.59474028  .00000601  00000+0  20245-3 0  9999
2 25077  86.3953  61.1103 0002905  89.1902 270.9628 14.35465141378976
IRIDIUM 44 [-]          
1 25078U 97077B   24100.59871926  .00000641  00000+0  20029-3 0  9992
2 25078  86.3980  44.1952 0003323  54.3744 305.7764 14.39293810381342
IRIDIUM 45 [-]          
1 25104U 97082A   24100.94736379  .00019480  00000+0  11285-2 0  9993
2 25104  86.3709 254.2299 0166615 127.2484 234.4081 15.01008517386617
IRIDIUM 24 [-]          
1 25105U 97082B   24100.70200730  .00000613  00000+0  18410-3 0  9991
2 25105  86.3865 263.8624 0013464  73.0517 287.2157 14.41058159380767
IRIDIUM 51 [-]          
1 25262U 98018A   24100.72618358  .00018414  00000+0  89090-3 0  9996
2 25262  86.3921 264.3497 0152601  75.3094 286.5001 15.08676086381085
